TDRS 3                  
1 19548U 88091B   17252.39870385 -.00000305  00000-0  00000-0 0  9992
2 19548  14.4465   7.0961 0033100 308.0452 114.7543  1.00277087 93251
HST                     
1 20580U 90037B   17252.88073295  .00001268  00000-0  67426-4 0  9999
2 20580  28.4691 167.8563 0002662   8.4798  64.9202 15.08843335303082
TDRS 5                  
1 21639U 91054B   17252.28190017  .00000082  00000-0  00000-0 0  9995
2 21639  14.4257  20.5184 0019579 346.4686 275.5035  1.00279116 95596
TDRS 6                  
1 22314U 93003B   17252.54797532 -.00000298  00000-0  00000-0 0  9996
2 22314  13.9626  23.4671 0003614 269.0197 207.7484  1.00275586 90333
TDRS 7                  
1 23613U 95035B   17252.60030948 -.00000207  00000-0  00000-0 0  9994
2 23613  15.0028  14.2157 0026336   2.3185 273.3197  1.00273007 81137
ISS (ZARYA)             
1 25544U 98067A   17252.56373843  .00009353  00000-0  14825-3 0  9999
2 25544  51.6436 337.7004 0004095 249.4830 311.3852 15.54147063 74874
LANDSAT 7               
1 25682U 99020A   17252.31465385  .00000362  00000-0  90485-4 0  9996
2 25682  98.2049 322.2789 0001149  94.1260 266.0103 14.57115576978843
TERRA                   
1 25994U 99068A   17252.80601527  .00000429  00000-0  10522-3 0  9995
2 25994  98.2027 326.6222 0001027  87.3714 272.7592 14.57114829942991
TDRS 8                  
1 26388U 00034A   17251.93896478 -.00000238  00000-0  00000-0 0  9998
2 26388   7.6287  55.1120 0005664 209.1502 150.9837  1.00278406 63069
EO-1                    
1 26619U 00075A   17252.50557548 -.00001336  00000-0 -24421-3 0  9993
2 26619  97.8313 277.6651 0009053 193.5337 166.5574 14.64397386895871
TIMED                   
1 26998U 01055B   17252.26093307  .00000426  00000-0  50536-4 0  9997
2 26998  74.0725 147.8330 0001208 216.4013 143.7086 14.87928962853938
TDRS 9                  
1 27389U 02011A   17252.25678295 -.00000110  00000-0  00000-0 0  9997
2 27389   5.4167  78.0356 0016207 237.9239 113.0634  1.00272204 58328
AQUA                    
1 27424U 02022A   17252.61642361  .00000404  00000-0  99767-4 0  9991
2 27424  98.2088 192.6659 0001165 146.5717 200.7184 14.57115285816510
TDRS 10                 
1 27566U 02055A   17251.67976370  .00000068  00000-0  00000-0 0  9993
2 27566   5.1745  58.0256 0006832 213.2373 146.9809  1.00270182 54115
SORCE                   
1 27651U 03004A   17252.36597615  .00000573  00000-0  74351-4 0  9996
2 27651  39.9947 212.5840 0022469 109.5370 250.7848 14.88716039793307
AURA                    
1 28376U 04026A   17252.55572725  .00000413  00000-0  10179-3 0  9992
2 28376  98.2085 194.7710 0001342 101.9322 258.2027 14.57119478699600
SWIFT                   
1 28485U 04047A   17252.36231929  .00001881  00000-0  10128-3 0  9997
2 28485  20.5565 266.2456 0011134 220.4835 139.4770 15.03822528700898
THEMIS A                
1 30580U 07004A   17252.26021570 -.00000438  00000-0  00000-0 0  9993
2 30580   7.3881 185.4525 8355379 145.7822 318.5135  0.87743647 37815
THEMIS D                
1 30797U 07004D   17251.63022553 -.00000417  00000-0  00000+0 0  9991
2 30797   4.6956 143.6246 8132329 201.9649  78.3956  1.06412643 38403
THEMIS E                
1 30798U 07004E   17252.01615264 -.00000526  00000-0  00000-0 0  9994
2 30798   4.9387 171.5282 8326227 170.9471 231.3778  0.87684000 38291
AIM                     
1 31304U 07015A   17252.52831402  .00004773  00000-0  28049-3 0  9993
2 31304  98.0033  75.5045 0004619 195.0635 165.0457 15.12205718567683
FGRST (GLAST)           
1 33053U 08029A   17252.81059881  .00001321  00000-0  59816-4 0  9990
2 33053  25.5822 147.8194 0012477 179.8790 180.1749 15.10947833510137
WISE                    
1 36119U 09071A   17252.56077843  .00004051  00000-0  14890-3 0  9999
2 36119  97.4452 280.3604 0003563  44.4680 315.6845 15.28475883429142
TDRS 11                 
1 39070U 13004A   17252.41957575  .00000079  00000-0  00000+0 0  9992
2 39070   5.2852 328.5716 0008652 286.0435  73.8626  1.00270603 16877
TDRS 12                 
1 39504U 14004A   17252.07954357 -.00000283  00000-0  00000-0 0  9991
2 39504   5.8881 335.9872 0001910 287.6811  72.3264  1.00276405 12163
GPM-CORE                
1 39574U 14009C   17252.59563279  .00014376  00000-0  21268-3 0  9998
2 39574  65.0114 352.7822 0010414 277.2761  82.7201 15.55477135200643
MMS 1                   
1 40482U 15011A   17251.57289573 -.00000271  00000-0  00000-0 0  9999
2 40482  23.4542 308.9768 9066330 158.3240  83.5246  0.35723394  7956
MMS 2                   
1 40483U 15011B   17251.27674552 -.00000249  00000-0  00000+0 0  9996
2 40483  23.4616 308.9888 9067070 158.2967  45.4592  0.35723491  7947
MMS 3                   
1 40484U 15011C   17251.27674552 -.00000249  00000-0  00000+0 0  9997
2 40484  23.4558 308.9709 9066857 158.3115  45.4711  0.35723429  7947
MMS 4                   
1 40485U 15011D   17251.27674552 -.00000249  00000-0  00000+0 0  9998
2 40485  23.4601 308.9789 9066106 158.2981  45.4803  0.35723460  7938
